[{"OBJECT_NAME":"STARLINK-36429","OBJECT_ID":"2026-003Y","EPOCH":"2026-03-09T10:46:58.070208","MEAN_MOTION":15.27610547,"ECCENTRICITY":9.64e-5,"INCLINATION":42.9966,"RA_OF_ASC_NODE":228.7174,"ARG_OF_PERICENTER":227.1582,"MEAN_ANOMALY":132.9189,"EPHEMERIS_TYPE":0,"CLASSIFICATION_TYPE":"U","NORAD_CAT_ID":67356,"ELEMENT_SET_NO":999,"REV_AT_EPOCH":878,"BSTAR":0.0017328812,"MEAN_MOTION_DOT":0.00047777,"MEAN_MOTION_DDOT":0},{"OBJECT_NAME":"OBJECT F","OBJECT_ID":"2021-022F","EPOCH":"2026-03-09T23:37:37.165152","MEAN_MOTION":15.31317672,"ECCENTRICITY":0.00120882,"INCLINATION":97.3982,"RA_OF_ASC_NODE":329.8375,"ARG_OF_PERICENTER":85.9268,"MEAN_ANOMALY":274.3355,"EPHEMERIS_TYPE":0,"CLASSIFICATION_TYPE":"U","NORAD_CAT_ID":47937,"ELEMENT_SET_NO":999,"REV_AT_EPOCH":27452,"BSTAR":0.00038690553,"MEAN_MOTION_DOT":0.00011656,"MEAN_MOTION_DDOT":0}]
